$$SOE
2460147.500000000, A.D. 2023-Jul-22 00:00:00.0000, 1.496946915488484E+08, 2.280742371532455E+08, 1.378353323908557E+07,
2460154.500000000, A.D. 2023-Jul-29 00:00:00.0000, 1.379063587040349E+08, 2.363420852834101E+08, 1.545565390369052E+07,
2460161.500000000, A.D. 2023-Aug-05 00:00:00.0000, 1.257929683215322E+08, 2.440528451828515E+08, 1.709133875739916E+07,
2460168.500000000, A.D. 2023-Aug-12 00:00:00.0000, 1.133863640677765E+08, 2.511947412016754E+08, 1.868718103944308E+07,
2460175.500000000, A.D. 2023-Aug-19 00:00:00.0000, 1.007187016903428E+08, 2.577583138602990E+08, 2.023999632353978E+07,
2460182.500000000, A.D. 2023-Aug-26 00:00:00.0000, 8.782223897395931E+07, 2.637363854534397E+08, 2.174683320047538E+07,
2460189.500000000, A.D. 2023-Sep-02 00:00:00.0000, 7.472913662848239E+07, 2.691240038827692E+08, 2.320498092806850E+07,
2460196.500000000, A.D. 2023-Sep-09 00:00:00.0000, 6.147127252840913E+07, 2.739183671460609E+08, 2.461197413920873E+07,
2460203.500000000, A.D. 2023-Sep-16 00:00:00.0000, 4.808007134303340E+07, 2.781187311112292E+08, 2.596559474295980E+07,
2460210.500000000, A.D. 2023-Sep-23 00:00:00.0000, 3.458635132851053E+07, 2.817263036644178E+08, 2.726387120657693E+07,
2460217.500000000, A.D. 2023-Sep-30 00:00:00.0000, 2.102018880254486E+07, 2.847441292494830E+08, 2.850507558589070E+07,
2460224.500000000, A.D. 2023-Oct-07 00:00:00.0000, 7.410798352894180E+06, 2.871769660062582E+08, 2.968771873723215E+07,
2460231.500000000, A.D. 2023-Oct-14 00:00:00.0000, -6.213570209094741E+06, 2.890311547909263E+08, 3.081054361989576E+07,
2460238.500000000, A.D. 2023-Oct-21 00:00:00.0000, -1.982571531861977E+07, 2.903144841223639E+08, 3.187251680921350E+07,
2460245.500000000, A.D. 2023-Oct-28 00:00:00.0000, -3.339954964977141E+07, 2.910360555272083E+08, 3.287281881522386E+07,
2460252.500000000, A.D. 2023-Nov-04 00:00:00.0000, -4.691015079607914E+07, 2.912061504444329E+08, 3.381083352415280E+07,
2460259.500000000, A.D. 2023-Nov-11 00:00:00.0000, -6.033379756287103E+07, 2.908360997451310E+08, 3.468613694532247E+07,
2460266.500000000, A.D. 2023-Nov-18 00:00:00.0000, -7.364799288272053E+07, 2.899381571802983E+08, 3.549848546408005E+07,
2460273.500000000, A.D. 2023-Nov-25 00:00:00.0000, -8.683147460009068E+07, 2.885253778907189E+08, 3.624780380029929E+07,
2460280.500000000, A.D. 2023-Dec-02 00:00:00.0000, -9.986421545905100E+07, 2.866115028431335E+08, 3.693417285423714E+07,
2460287.500000000, A.D. 2023-Dec-09 00:00:00.0000, -1.127274135710819E+08, 2.842108497964664E+08, 3.755781759292655E+07,
2460294.500000000, A.D. 2023-Dec-16 00:00:00.0000, -1.254034743837331E+08, 2.813382112706560E+08, 3.811909509250194E+07,
2460301.500000000, A.D. 2023-Dec-23 00:00:00.0000, -1.378759850445406E+08, 2.780087604749517E+08, 3.861848287514473E+07,
2460308.500000000, A.D. 2023-Dec-30 00:00:00.0000, -1.501296836692067E+08, 2.742379663515224E+08, 3.905656784004052E+07,
2460315.500000000, A.D. 2024-Jan-06 00:00:00.0000, -1.621504263636312E+08, 2.700415153454915E+08, 3.943403582734776E+07,
2460322.500000000, A.D. 2024-Jan-13 00:00:00.0000, -1.739251498041195E+08, 2.654352379393679E+08, 3.975166142536062E+07,
2460329.500000000, A.D. 2024-Jan-20 00:00:00.0000, -1.854418290481285E+08, 2.604350427961316E+08, 4.001029819542025E+07,
2460336.500000000, A.D. 2024-Jan-27 00:00:00.0000, -1.966894334007916E+08, 2.550568588735055E+08, 4.021086957605234E+07,
2460343.500000000, A.D. 2024-Feb-03 00:00:00.0000, -2.076578814565338E+08, 2.493165842127678E+08, 4.035436043639188E+07,
2460350.500000000, A.D. 2024-Feb-10 00:00:00.0000, -2.183379956422956E+08, 2.432300407222651E+08, 4.044180922847688E+07,
2460357.500000000, A.D. 2024-Feb-17 00:00:00.0000, -2.287214566469575E+08, 2.368129345569513E+08, 4.047430071912527E+07,
2460364.500000000, A.D. 2024-Feb-24 00:00:00.0000, -2.388007581463468E+08, 2.300808216970118E+08, 4.045295928751498E+07,
2460371.500000000, A.D. 2024-Mar-02 00:00:00.0000, -2.485691621655096E+08, 2.230490782839053E+08, 4.037894276711020E+07,
2460378.500000000, A.D. 2024-Mar-09 00:00:00.0000, -2.580206552414632E+08, 2.157328752490498E+08, 4.025343679381783E+07,
2460385.500000000, A.D. 2024-Mar-16 00:00:00.0000, -2.671499052312712E+08, 2.081471570406594E+08, 4.007764961609785E+07,
2460392.500000000, A.D. 2024-Mar-23 00:00:00.0000, -2.759522190563540E+08, 2.003066251791227E+08, 3.985280744013169E+07,
2460399.500000000, A.D. 2024-Mar-30 00:00:00.0000, -2.844235037691154E+08, 1.922257262540613E+08, 3.958015048508003E+07,
2460406.500000000, A.D. 2024-Apr-06 00:00:00.0000, -2.925602307904626E+08, 1.839186406594908E+08, 3.926092942090217E+07,
2460413.500000000, A.D. 2024-Apr-13 00:00:00.0000, -3.003593998285311E+08, 1.753992725836796E+08, 3.889640190136161E+07,
2460420.500000000, A.D. 2024-Apr-20 00:00:00.0000, -3.078185034695364E+08, 1.666812436259178E+08, 3.848782946887066E+07,
2460427.500000000, A.D. 2024-Apr-27 00:00:00.0000, -3.149354939819751E+08, 1.577778892051472E+08, 3.803647489729222E+07,
2460434.500000000, A.D. 2024-May-04 00:00:00.0000, -3.217087522456800E+08, 1.487022568093901E+08, 3.754359988093103E+07,
2460441.500000000, A.D. 2024-May-11 00:00:00.0000, -3.281370585472333E+08, 1.394671057550482E+08, 3.701046301406647E+07,
2460448.500000000, A.D. 2024-May-18 00:00:00.0000, -3.342195651272981E+08, 1.300849082681580E+08, 3.643831803115552E+07,
2460455.500000000, A.D. 2024-May-25 00:00:00.0000, -3.399557704131036E+08, 1.205678516909532E+08, 3.582841228224450E+07,
2460462.500000000, A.D. 2024-Jun-01 00:00:00.0000, -3.453454948263570E+08, 1.109278415855963E+08, 3.518198541227745E+07,
2460469.500000000, A.D. 2024-Jun-08 00:00:00.0000, -3.503888578641983E+08, 1.011765055587517E+08, 3.450026820013702E+07,
2460476.500000000, A.D. 2024-Jun-15 00:00:00.0000, -3.550862559929804E+08, 9.132519821441773E+07, 3.378448154699840E+07,
2460483.500000000, A.D. 2024-Jun-22 00:00:00.0000, -3.594383422969805E+08, 8.138500828637068E+07, 3.303583578525344E+07,
2460490.500000000, A.D. 2024-Jun-29 00:00:00.0000, -3.634460099422627E+08, 7.136676601924939E+07, 3.225553033835647E+07,
2460497.500000000, A.D. 2024-Jul-06 00:00:00.0000, -3.671103767496845E+08, 6.128104823264842E+07, 3.144475327309720E+07,
2460504.500000000, A.D. 2024-Jul-13 00:00:00.0000, -3.704327688601097E+08, 5.113818380914104E+07, 3.060468078305855E+07,
2460511.500000000, A.D. 2024-Jul-20 00:00:00.0000, -3.734147054103805E+08, 4.094826067715123E+07, 2.973647686670268E+07,
2460518.500000000, A.D. 2024-Jul-27 00:00:00.0000, -3.760578848169222E+08, 3.072113326202454E+07, 2.884129317063930E+07,
2460525.500000000, A.D. 2024-Aug-03 00:00:00.0000, -3.783641723355046E+08, 2.046642997602591E+07, 2.792026893218723E+07,
2460532.500000000, A.D. 2024-Aug-10 00:00:00.0000, -3.803355886692230E+08, 1.019356069606441E+07, 2.697453099589012E+07,
2460539.500000000, A.D. 2024-Aug-17 00:00:00.0000, -3.819742995145339E+08, -8.827579246450961E+04, 2.600519389223038E+07,
2460546.500000000, A.D. 2024-Aug-24 00:00:00.0000, -3.832826059587657E+08, -1.037008444914418E+07, 2.501335996596482E+07,
2460553.500000000, A.D. 2024-Aug-31 00:00:00.0000, -3.842629355624688E+08, -2.064306682819935E+07, 2.400011953148552E+07,
2460560.500000000, A.D. 2024-Sep-07 00:00:00.0000, -3.849178337173564E+08, -3.089861402861805E+07, 2.296655102607266E+07,
2460567.500000000, A.D. 2024-Sep-14 00:00:00.0000, -3.852499551539128E+08, -4.112829877188294E+07, 2.191372122922374E+07,
2460574.500000000, A.D. 2024-Sep-21 00:00:00.0000, -3.852620575871108E+08, -5.132386621283920E+07, 2.084268576270618E+07,
2460581.500000000, A.D. 2024-Sep-28 00:00:00.0000, -3.849569979497292E+08, -6.147722672701786E+07, 1.975448964747531E+07,
2460588.500000000, A.D. 2024-Oct-05 00:00:00.0000, -3.843377275076829E+08, -7.158045068450429E+07, 1.865016757682973E+07,
2460595.500000000, A.D. 2024-Oct-12 00:00:00.0000, -3.834072861796111E+08, -8.162576223887019E+07, 1.753074417866608E+07,
2460602.500000000, A.D. 2024-Oct-19 00:00:00.0000, -3.821687977738891E+08, -9.160553241170003E+07, 1.639723440173279E+07,
2460609.500000000, A.D. 2024-Oct-26 00:00:00.0000, -3.806254661439280E+08, -1.015122722841651E+08, 1.525064396020750E+07,
2460616.500000000, A.D. 2024-Nov-02 00:00:00.0000, -3.787805719777433E+08, -1.113386264511732E+08, 1.409196979828705E+07,
2460623.500000000, A.D. 2024-Nov-09 00:00:00.0000, -3.766374700999340E+08, -1.210773667217603E+08, 1.292220056543994E+07,
2460630.500000000, A.D. 2024-Nov-16 00:00:00.0000, -3.741995872359320E+08, -1.307213860686476E+08, 1.174231709802439E+07,
2460637.500000000, A.D. 2024-Nov-23 00:00:00.0000, -3.714704201691270E+08, -1.402636928794603E+08, 1.055329289715631E+07,
2460644.500000000, A.D. 2024-Nov-30 00:00:00.0000, -3.684535340621622E+08, -1.496974055542265E+08, 9.356094578722157E+06,
2460651.500000000, A.D. 2024-Dec-07 00:00:00.0000, -3.651525605042940E+08, -1.590157470297739E+08, 8.151682290141232E+06,
2460658.500000000, A.D. 2024-Dec-14 00:00:00.0000, -3.615711959558647E+08, -1.682120380077394E+08, 6.941010255934007E+06,
2460665.500000000, A.D. 2024-Dec-21 00:00:00.0000, -3.577132028923931E+08, -1.772796901282821E+08, 5.725027562308870E+06,
2460672.500000000, A.D. 2024-Dec-28 00:00:00.0000, -3.535824116636443E+08, -1.862122020592310E+08, 4.504678756419390E+06,
2460679.500000000, A.D. 2025-Jan-04 00:00:00.0000, -3.491827204609544E+08, -1.950031561252429E+08, 3.280904215668112E+06,
2460686.500000000, A.D. 2025-Jan-11 00:00:00.0000, -3.445180952031376E+08, -2.036462138157247E+08, 2.054640589388311E+06,
2460693.500000000, A.D. 2025-Jan-18 00:00:00.0000, -3.395925702461304E+08, -2.121351110898680E+08, 8.268213215077817E+05,
2460700.500000000, A.D. 2025-Jan-25 00:00:00.0000, -3.344102496633176E+08, -2.204636539552044E+08, -4.016228074403256E+05,
2460707.500000000, A.D. 2025-Feb-01 00:00:00.0000, -3.289753089006507E+08, -2.286257143524728E+08, -1.629763139257953E+06,
2460714.500000000, A.D. 2025-Feb-08 00:00:00.0000, -3.232919967434392E+08, -2.366152263292303E+08, -2.856672602041557E+06,
$$EOE